NORAD_CAT_ID,OBJECT_NAME,OBJECT_TYPE,EPOCH,MEAN_MOTION,ECCENTRICITY,INCLINATION,RA_OF_ASC_NODE,ARG_OF_PERICENTER,MEAN_ANOMALY,BSTAR,MEAN_MOTION_DOT,MEAN_MOTION_DDOT,TLE_LINE0,TLE_LINE1,TLE_LINE2,SEMIMAJOR_AXIS,PERIOD,APOGEE,PERIGEE,DECAYED
53591.0,STARLINK-4674,PAYLOAD,2023-10-21 10:27:18,15.08841425,0.0001759,53.2165,191.0121,89.0162,271.1032,0.00027525,4.095e-05,0.0,0 STARLINK-4674,1 53591U 22104D   23294.43563109  .00004095  00000-0  27525-3 0  9995,2 53591  53.2165 191.0121 0001759  89.0162 271.1032 15.08841425 63542,6917.876,95.437,540.958,538.524,0.0
53591.0,STARLINK-4674,PAYLOAD,2023-10-21 23:10:22,15.08861176,0.0001447,53.2145,188.6335,85.3954,274.7203,0.00073266,0.00011398,0.0,0 STARLINK-4674,1 53591U 22104D   23294.96554241  .00011398  00000-0  73266-3 0  9997,2 53591  53.2145 188.6335 0001447  85.3954 274.7203 15.08861176 64669,6917.816,95.436,540.682,538.68,0.0
53591.0,STARLINK-4674,PAYLOAD,2023-10-22 00:45:46,15.08869909,0.0001635,53.2152,188.3363,88.2263,271.8917,0.0011076,0.00017398,0.0,0 STARLINK-4674,1 53591U 22104D   23295.03178332  .00017398  00000-0  11076-2 0  9995,2 53591  53.2152 188.3363 0001635  88.2263 271.8917 15.08869909 63637,6917.789,95.436,540.785,538.523,0.0
53591.0,STARLINK-4674,PAYLOAD,2023-10-22 10:18:04,15.08852027,0.0001809,53.216,186.5531,94.7023,265.4176,1.8178e-05,1e-08,0.0,0 STARLINK-4674,1 53591U 22104D   23295.42922392  .00000001  00000-0  18178-4 0  9996,2 53591  53.2160 186.5531 0001809  94.7023 265.4176 15.08852027 63697,6917.844,95.437,540.96,538.457,0.0
53591.0,STARLINK-4674,PAYLOAD,2023-10-22 23:01:11,15.08782658,0.0001671,53.2152,184.1739,113.0002,247.1167,0.00076124,0.00011829,0.0,0 STARLINK-4674,1 53591U 22104D   23295.95916586  .00011829  00000-0  76124-3 0  9996,2 53591  53.2152 184.1739 0001671 113.0002 247.1167 15.08782658 64815,6918.056,95.441,541.077,538.765,0.0
53591.0,STARLINK-4674,PAYLOAD,2023-10-23 10:08:54,15.08818781,0.0001771,53.216,182.0925,113.5295,246.5884,0.0022147,0.00035115,0.0,0 STARLINK-4674,1 53591U 22104D   23296.42285668  .00035115  00000-0  22147-2 0  9998,2 53591  53.2160 182.0925 0001771 113.5295 246.5884 15.08818781 63846,6917.945,95.439,541.035,538.585,0.0
53591.0,STARLINK-4674,PAYLOAD,2023-10-23 19:41:13,15.08861818,0.0001561,53.2158,180.3093,110.6717,249.4443,0.0027329,0.00043501,0.0,0 STARLINK-4674,1 53591U 22104D   23296.82029459  .00043501  00000-0  27329-2 0  9991,2 53591  53.2158 180.3093 0001561 110.6717 249.4443 15.08861818 63903,6917.814,95.436,540.759,538.599,0.0
53591.0,STARLINK-4674,PAYLOAD,2023-10-23 22:51:59,15.08873107,0.0001564,53.2163,179.7129,114.7545,245.361,0.0027836,0.00044332,0.0,0 STARLINK-4674,1 53591U 22104D   23296.95277184  .00044332  00000-0  27836-2 0  9991,2 53591  53.2163 179.7129 0001564 114.7545 245.3610 15.08873107 64960,6917.779,95.435,540.726,538.562,0.0
53591.0,STARLINK-4674,PAYLOAD,2023-10-25 00:18:08,15.08875174,0.0001532,53.2167,174.9555,111.6589,248.4566,0.0011327,0.00017802,0.0,0 STARLINK-4674,1 53591U 22104D   23298.01259747  .00017802  00000-0  11327-2 0  9995,2 53591  53.2167 174.9555 0001532 111.6589 248.4566 15.08875174 64086,6917.773,95.435,540.698,538.578,0.0
53591.0,STARLINK-4674,PAYLOAD,2023-10-25 22:33:32,15.08848445,0.000132,53.2163,170.7939,113.6762,246.4369,5.7466e-06,-1.96e-06,0.0,0 STARLINK-4674,1 53591U 22104D   23298.93995476 -.00000196  00000-0  57466-5 0  9998,2 53591  53.2163 170.7939 0001320 113.6762 246.4369 15.08848445 65263,6917.855,95.437,540.633,538.806,0.0
53591.0,STARLINK-4674,PAYLOAD,2023-10-26 20:48:55,15.08852847,0.0001467,53.2167,166.6328,112.8031,247.3117,0.00022105,3.233e-05,0.0,0 STARLINK-4674,1 53591U 22104D   23299.86731058  .00003233  00000-0  22105-3 0  9999,2 53591  53.2167 166.6328 0001467 112.8031 247.3117 15.08852847 65403,6917.841,95.437,540.721,538.691,0.0
53591.0,STARLINK-4674,PAYLOAD,2023-10-27 01:35:04,15.08858278,0.0001395,53.2154,165.7377,106.7472,253.3673,0.00041747,6.366e-05,0.0,0 STARLINK-4674,1 53591U 22104D   23300.06602740  .00006366  00000-0  41747-3 0  9992,2 53591  53.2154 165.7377 0001395 106.7472 253.3673 15.08858278 64399,6917.825,95.436,540.655,538.724,0.0
53591.0,STARLINK-4674,PAYLOAD,2023-10-27 07:56:37,15.08850344,0.0001334,53.2155,164.5451,90.4704,269.6441,0.00042996,6.563e-05,0.0,0 STARLINK-4674,1 53591U 22104D   23300.33098933  .00006563  00000-0  42996-3 0  9991,2 53591  53.2155 164.5451 0001334  90.4704 269.6441 15.08850344 64434,6917.849,95.437,540.637,538.791,0.0
53591.0,STARLINK-4674,PAYLOAD,2023-10-27 20:39:42,15.088391,0.0001554,53.2164,162.173,104.2705,255.846,3.5075e-06,-2.32e-06,0.0,0 STARLINK-4674,1 53591U 22104D   23300.86091365 -.00000232  00000-0  35075-5 0  9991,2 53591  53.2164 162.1730 0001554 104.2705 255.8460 15.08839100 64511,6917.883,95.438,540.823,538.673,0.0
53591.0,STARLINK-4674,PAYLOAD,2023-10-27 22:15:06,15.08840602,0.0001483,53.2163,161.8756,105.6133,254.5023,5.2156e-05,5.42e-06,0.0,0 STARLINK-4674,1 53591U 22104D   23300.92715360  .00000542  00000-0  52156-4 0  9997,2 53591  53.2163 161.8756 0001483 105.6133 254.5023 15.08840602 65561,6917.879,95.438,540.769,538.718,0.0
53591.0,STARLINK-4674,PAYLOAD,2023-10-28 14:08:57,15.08838751,0.0001526,53.2157,158.8992,89.7913,270.3254,5.3848e-05,5.69e-06,0.0,0 STARLINK-4674,1 53591U 22104D   23301.58955674  .00000569  00000-0  53848-4 0  9992,2 53591  53.2157 158.8992 0001526  89.7913 270.3254 15.08838751 65663,6917.884,95.438,540.805,538.694,0.0
53591.0,STARLINK-4674,PAYLOAD,2023-10-28 22:05:53,15.08838303,0.00015,53.2156,157.4119,87.3261,272.7903,0.00013873,1.921e-05,0.0,0 STARLINK-4674,1 53591U 22104D   23301.92075853  .00001921  00000-0  13873-3 0  9998,2 53591  53.2156 157.4119 0001500  87.3261 272.7903 15.08838303 65716,6917.886,95.438,540.788,538.713,0.0
53591.0,STARLINK-4674,PAYLOAD,2023-10-29 13:59:44,15.0884553,0.0001549,53.2155,154.4387,85.3301,274.7868,0.00036666,5.553e-05,0.0,0 STARLINK-4674,1 53591U 22104D   23302.58315861  .00005553  00000-0  36666-3 0  9997,2 53591  53.2155 154.4387 0001549  85.3301 274.7868 15.08845530 65818,6917.863,95.437,540.8,538.657,0.0
53591.0,STARLINK-4674,PAYLOAD,2023-10-29 20:21:17,15.08850528,0.0001384,53.2145,153.249,86.5646,273.5505,0.00042079,6.417e-05,0.0,0 STARLINK-4674,1 53591U 22104D   23302.84811594  .00006417  00000-0  42079-3 0  9995,2 53591  53.2145 153.2490 0001384  86.5646 273.5505 15.08850528 65853,6917.848,95.437,540.671,538.756,0.0
53591.0,STARLINK-4674,PAYLOAD,2023-10-29 23:32:03,15.08853323,0.0001389,53.2143,152.654,86.7328,273.3823,0.00046252,7.083e-05,0.0,0 STARLINK-4674,1 53591U 22104D   23302.98059460  .00007083  00000-0  46252-3 0  9993,2 53591  53.2143 152.6540 0001389  86.7328 273.3823 15.08853323 64838,6917.84,95.437,540.666,538.744,0.0
53591.0,STARLINK-4674,PAYLOAD,2023-10-31 07:19:46,15.08841467,0.0001419,53.2146,146.7065,80.4802,279.635,0.00018166,2.604e-05,0.0,0 STARLINK-4674,1 53591U 22104D   23304.30540074  .00002604  00000-0  18166-3 0  9994,2 53591  53.2146 146.7065 0001419  80.4802 279.6350 15.08841467 65032,6917.876,95.437,540.723,538.759,0.0
53591.0,STARLINK-4674,PAYLOAD,2023-10-31 20:02:51,15.08847344,0.0001401,53.2154,144.3256,82.4761,277.639,0.00030194,4.522e-05,0.0,0 STARLINK-4674,1 53591U 22104D   23304.83531889  .00004522  00000-0  30194-3 0  9992,2 53591  53.2154 144.3256 0001401  82.4761 277.6390 15.08847344 66150,6917.858,95.437,540.692,538.754,0.0
53591.0,STARLINK-4674,PAYLOAD,2023-11-01 13:32:06,15.08843298,0.0001435,53.2155,141.0541,82.8006,277.3149,0.00018274,2.622e-05,0.0,0 STARLINK-4674,1 53591U 22104D   23305.56395954  .00002622  00000-0  18274-3 0  9998,2 53591  53.2155 141.0541 0001435  82.8006 277.3149 15.08843298 66260,6917.87,95.437,540.728,538.743,0.0
53591.0,STARLINK-4674,PAYLOAD,2023-11-01 19:53:38,15.08846192,0.0001396,53.2156,139.8646,82.6336,277.4815,0.00019944,2.888e-05,0.0,0 STARLINK-4674,1 53591U 22104D   23305.82891759  .00002888  00000-0  19944-3 0  9990,2 53591  53.2156 139.8646 0001396  82.6336 277.4815 15.08846192 65268,6917.861,95.437,540.692,538.761,0.0
53591.0,STARLINK-4674,PAYLOAD,2023-11-02 13:22:53,15.08839622,0.0001434,53.2156,136.5937,82.4585,277.657,-7.28e-05,-1.446e-05,0.0,0 STARLINK-4674,1 53591U 22104D   23306.55755913 -.00001446  00000-0 -72800-4 0  9994,2 53591  53.2156 136.5937 0001434  82.4585 277.6570 15.08839622 65374,6917.882,95.438,540.739,538.755,0.0
53591.0,STARLINK-4674,PAYLOAD,2023-11-02 19:44:25,15.08843887,0.0001434,53.2157,135.4044,82.6126,277.5029,-2.874e-05,-7.45e-06,0.0,0 STARLINK-4674,1 53591U 22104D   23306.82251710 -.00000745  00000-0 -28740-4 0  9995,2 53591  53.2157 135.4044 0001434  82.6126 277.5029 15.08843887 66451,6917.869,95.437,540.726,538.741,0.0
53591.0,STARLINK-4674,PAYLOAD,2023-11-03 13:13:40,15.08840535,0.0001334,53.2159,132.1341,89.4111,270.7034,6.2126e-05,7.01e-06,0.0,0 STARLINK-4674,1 53591U 22104D   23307.55116089  .00000701  00000-0  62126-4 0  9991,2 53591  53.2159 132.1341 0001334  89.4111 270.7034 15.08840535 66565,6917.879,95.438,540.667,538.821,0.0
53591.0,STARLINK-4674,PAYLOAD,2023-11-03 21:10:35,15.08844988,0.0001301,53.2158,130.6477,89.0132,271.1009,0.00010148,1.328e-05,0.0,0 STARLINK-4674,1 53591U 22104D   23307.88235616  .00001328  00000-0  10148-3 0  9997,2 53591  53.2158 130.6477 0001301  89.0132 271.1009 15.08844988 65573,6917.865,95.437,540.63,538.83,0.0
53591.0,STARLINK-4674,PAYLOAD,2023-11-04 11:29:04,15.08839794,0.0001294,53.2159,127.9713,90.2682,269.8458,6.7061e-05,7.8e-06,0.0,0 STARLINK-4674,1 53591U 22104D   23308.47851973  .00000780  00000-0  67061-4 0  9991,2 53591  53.2159 127.9713 0001294  90.2682 269.8458 15.08839794 65662,6917.881,95.438,540.641,538.851,0.0
53591.0,STARLINK-4674,PAYLOAD,2023-11-04 19:26:00,15.08836112,0.0001312,53.2159,126.4847,90.4926,269.6216,1.9295e-05,1.9e-07,0.0,0 STARLINK-4674,1 53591U 22104D   23308.80972322  .00000019  00000-0  19295-4 0  9991,2 53591  53.2159 126.4847 0001312  90.4926 269.6216 15.08836112 66750,6917.892,95.438,540.665,538.85,0.0
